NORAD_CAT_ID,OBJECT_NAME,OBJECT_TYPE,EPOCH,MEAN_MOTION,ECCENTRICITY,INCLINATION,RA_OF_ASC_NODE,ARG_OF_PERICENTER,MEAN_ANOMALY,BSTAR,MEAN_MOTION_DOT,MEAN_MOTION_DDOT,TLE_LINE0,TLE_LINE1,TLE_LINE2,SEMIMAJOR_AXIS,PERIOD,APOGEE,PERIGEE,DECAYED
53917.0,STARLINK-5036,PAYLOAD,2024-02-29 07:29:33,15.08838847,0.0001419,53.2176,33.3371,83.8131,276.3023,8.402e-05,1.049e-05,0.0,0 STARLINK-5036,1 53917U 22119AH  24060.31219620  .00001049  00000-0  84020-4 0  9998,2 53917  53.2176  33.3371 0001419  83.8131 276.3023 15.08838847 80205,6917.884,95.438,540.731,538.767,0.0
53917.0,STARLINK-5036,PAYLOAD,2024-02-29 15:26:29,15.08839371,0.000147,53.2177,31.8515,83.5568,276.5591,7.294e-05,8.73e-06,0.0,0 STARLINK-5036,1 53917U 22119AH  24060.64339684  .00000873  00000-0  72940-4 0  9999,2 53917  53.2177  31.8515 0001470  83.5568 276.5591 15.08839371 79839,6917.882,95.438,540.764,538.73,0.0
53917.0,STARLINK-5036,PAYLOAD,2024-02-29 21:48:02,15.08838958,0.0001438,53.2175,30.6629,83.7937,276.3219,3.8519e-05,3.25e-06,0.0,0 STARLINK-5036,1 53917U 22119AH  24060.90835842  .00000325  00000-0  38519-4 0  9991,2 53917  53.2175  30.6629 0001438  83.7937 276.3219 15.08838958 80293,6917.884,95.438,540.743,538.754,0.0
53917.0,STARLINK-5036,PAYLOAD,2024-03-01 04:09:34,15.08847246,0.0001456,53.2173,29.4738,83.7759,276.3399,4.5336e-05,4.34e-06,0.0,0 STARLINK-5036,1 53917U 22119AH  24061.17331284  .00000434  00000-0  45336-4 0  9998,2 53917  53.2173  29.4738 0001456  83.7759 276.3399 15.08847246 80334,6917.858,95.437,540.73,538.716,0.0
53917.0,STARLINK-5036,PAYLOAD,2024-03-01 15:17:15,15.08849152,0.0001461,53.2175,27.392,84.5889,275.527,6.9865e-05,8.24e-06,0.0,0 STARLINK-5036,1 53917U 22119AH  24061.63698938  .00000824  00000-0  69865-4 0  9997,2 53917  53.2175  27.3920 0001461  84.5889 275.5270 15.08849152 79981,6917.852,95.437,540.728,538.707,0.0
53917.0,STARLINK-5036,PAYLOAD,2024-03-02 04:00:21,15.08846113,0.0001452,53.2182,25.0128,86.7363,273.3796,9.8321e-05,1.277e-05,0.0,0 STARLINK-5036,1 53917U 22119AH  24062.16691032  .00001277  00000-0  98321-4 0  9996,2 53917  53.2182  25.0128 0001452  86.7363 273.3796 15.08846113 80485,6917.862,95.437,540.731,538.722,0.0
53917.0,STARLINK-5036,PAYLOAD,2024-03-03 03:51:08,15.08835448,0.000121,53.2188,20.5508,92.8777,267.2354,0.0001082,1.434e-05,0.0,0 STARLINK-5036,1 53917U 22119AH  24063.16051521  .00001434  00000-0  10820-3 0  9992,2 53917  53.2188  20.5508 0001210  92.8777 267.2354 15.08835448 80214,6917.894,95.438,540.596,538.922,0.0
53917.0,STARLINK-5036,PAYLOAD,2024-03-03 07:01:54,15.08848771,0.0001447,53.2192,19.9539,108.1947,251.9202,-2.312e-05,-6.56e-06,0.0,0 STARLINK-5036,1 53917U 22119AH  24063.29298903 -.00000656  00000-0 -23120-4 0  9998,2 53917  53.2192  19.9539 0001447 108.1947 251.9202 15.08848771 80234,6917.854,95.437,540.72,538.718,0.0
53917.0,STARLINK-5036,PAYLOAD,2024-03-04 03:41:54,15.08853562,0.0001584,53.2194,16.091,104.7165,255.4002,0.00012654,1.727e-05,0.0,0 STARLINK-5036,1 53917U 22119AH  24064.15410158  .00001727  00000-0  12654-3 0  9999,2 53917  53.2194  16.0910 0001584 104.7165 255.4002 15.08853562 80784,6917.839,95.437,540.8,538.608,0.0
53917.0,STARLINK-5036,PAYLOAD,2024-03-04 13:14:13,15.08844978,0.0001594,53.2191,14.3034,73.7564,286.3604,9.5119e-05,1.226e-05,0.0,0 STARLINK-5036,1 53917U 22119AH  24064.55154643  .00001226  00000-0  95119-4 0  9999,2 53917  53.2191  14.3034 0001594  73.7564 286.3604 15.08844978 80421,6917.865,95.437,540.833,538.627,0.0
53917.0,STARLINK-5036,PAYLOAD,2024-03-05 03:32:43,15.08827664,0.0001464,53.2193,11.6292,85.9149,274.201,-8.1442e-05,-1.583e-05,0.0,0 STARLINK-5036,1 53917U 22119AH  24065.14772565 -.00001583  00000-0 -81442-4 0  9996,2 53917  53.2193  11.6292 0001464  85.9149 274.2010 15.08827664 80519,6917.918,95.438,540.796,538.77,0.0
53917.0,STARLINK-5036,PAYLOAD,2024-03-05 06:43:29,15.08829388,0.0001473,53.2194,11.0321,83.6484,276.4676,-5.451e-05,-1.155e-05,0.0,0 STARLINK-5036,1 53917U 22119AH  24065.28020447 -.00001155  00000-0 -54510-4 0  9997,2 53917  53.2194  11.0321 0001473  83.6484 276.4676 15.08829388 80959,6917.913,95.438,540.797,538.759,0.0
53917.0,STARLINK-5036,PAYLOAD,2024-03-05 19:26:34,15.08831294,0.0001395,53.2203,8.6555,89.4132,270.702,5.3283e-05,5.6e-06,0.0,0 STARLINK-5036,1 53917U 22119AH  24065.81012358  .00000560  00000-0  53283-4 0  9991,2 53917  53.2203   8.6555 0001395  89.4132 270.7020 15.08831294 80610,6917.907,95.438,540.737,538.807,0.0
53917.0,STARLINK-5036,PAYLOAD,2024-03-06 03:23:29,15.08849199,0.0001288,53.2185,7.17,86.1639,273.95,7.0183e-05,8.3e-06,0.0,0 STARLINK-5036,1 53917U 22119AH  24066.14131279  .00000830  00000-0  70183-4 0  9990,2 53917  53.2185   7.1700 0001288  86.1639 273.9500 15.08849199 80668,6917.852,95.437,540.608,538.826,0.0
53917.0,STARLINK-5036,PAYLOAD,2024-03-06 04:58:52,15.08852101,0.0001384,53.2185,6.8729,95.3076,264.8074,8.7941e-05,1.112e-05,0.0,0 STARLINK-5036,1 53917U 22119AH  24066.20755032  .00001112  00000-0  87941-4 0  9990,2 53917  53.2185   6.8729 0001384  95.3076 264.8074 15.08852101 81099,6917.843,95.437,540.666,538.751,0.0
53917.0,STARLINK-5036,PAYLOAD,2024-03-07 03:14:17,15.08836708,0.0001444,53.219,2.7092,82.7901,277.3255,9.567e-05,1.235e-05,0.0,0 STARLINK-5036,1 53917U 22119AH  24067.13492180  .00001235  00000-0  95670-4 0  9999,2 53917  53.2190   2.7092 0001444  82.7901 277.3255 15.08836708 80811,6917.89,95.438,540.754,538.757,0.0
53917.0,STARLINK-5036,PAYLOAD,2024-03-07 12:46:35,15.08843821,0.0001445,53.2191,0.925,83.2101,276.9055,0.00013368,1.84e-05,0.0,0 STARLINK-5036,1 53917U 22119AH  24067.53235613  .00001840  00000-0  13368-3 0  9994,2 53917  53.2191   0.9250 0001445  83.2101 276.9055 15.08843821 81297,6917.869,95.437,540.733,538.734,0.0
53917.0,STARLINK-5036,PAYLOAD,2024-03-08 12:37:22,15.08851583,0.0002115,53.2217,356.4593,76.0997,284.023,5.631e-05,6.08e-06,0.0,0 STARLINK-5036,1 53917U 22119AH  24068.52595386  .00000608  00000-0  56310-4 0  9996,2 53917  53.2217 356.4593 0002115  76.0997 284.0230 15.08851583 81449,6917.845,95.437,541.173,538.247,0.0
53917.0,STARLINK-5036,PAYLOAD,2024-03-08 18:58:57,15.08817776,7.8e-05,53.2191,355.2744,102.7074,257.4005,-0.00016939,-2.981e-05,0.0,0 STARLINK-5036,1 53917U 22119AH  24068.79093750 -.00002981  00000-0 -16939-3 0  9993,2 53917  53.2191 355.2744 0000780 102.7074 257.4005 15.08817776 81062,6917.948,95.439,540.353,539.274,0.0
53917.0,STARLINK-5036,PAYLOAD,2024-03-09 01:20:28,15.08836749,0.0001181,53.2191,354.0857,89.7544,270.3584,-7.4185e-06,-4.06e-06,0.0,0 STARLINK-5036,1 53917U 22119AH  24069.05588274 -.00000406  00000-0 -74185-5 0  9992,2 53917  53.2191 354.0857 0001181  89.7544 270.3584 15.08836749 81108,6917.89,95.438,540.572,538.938,0.0
53917.0,STARLINK-5036,PAYLOAD,2024-03-09 04:31:14,15.08843254,0.0001334,53.219,353.4902,93.2039,266.9106,4.8503e-05,4.84e-06,0.0,0 STARLINK-5036,1 53917U 22119AH  24069.18835742  .00000484  00000-0  48503-4 0  9999,2 53917  53.2190 353.4902 0001334  93.2039 266.9106 15.08843254 81122,6917.87,95.437,540.658,538.813,0.0
53917.0,STARLINK-5036,PAYLOAD,2024-03-09 12:28:09,15.08847124,0.0001357,53.2194,352.0048,90.099,270.0157,6.7432e-05,7.86e-06,0.0,0 STARLINK-5036,1 53917U 22119AH  24069.51955321  .00000786  00000-0  67432-4 0  9999,2 53917  53.2194 352.0048 0001357  90.0990 270.0157 15.08847124 81591,6917.859,95.437,540.662,538.785,0.0
53917.0,STARLINK-5036,PAYLOAD,2024-03-10 04:22:00,15.08845526,0.0001597,53.2213,349.029,114.9529,245.1629,5.6333e-05,6.09e-06,0.0,0 STARLINK-5036,1 53917U 22119AH  24070.18195462  .00000609  00000-0  56333-4 0  9998,2 53917  53.2213 349.0290 0001597 114.9529 245.1629 15.08845526 81690,6917.863,95.437,540.833,538.624,0.0
53917.0,STARLINK-5036,PAYLOAD,2024-03-10 21:51:16,15.08823039,0.0001021,53.2186,345.7566,126.5388,233.5699,0.0002029,2.941e-05,0.0,0 STARLINK-5036,1 53917U 22119AH  24070.91060256  .00002941  00000-0  20290-3 0  9994,2 53917  53.2186 345.7566 0001021 126.5388 233.5699 15.08823039 81808,6917.932,95.439,540.504,539.091,0.0
53917.0,STARLINK-5036,PAYLOAD,2024-03-11 04:12:48,15.08830846,0.0001199,53.2181,344.568,101.4275,258.6852,5.8875e-05,6.49e-06,0.0,0 STARLINK-5036,1 53917U 22119AH  24071.17556472  .00000649  00000-0  58875-4 0  9997,2 53917  53.2181 344.5680 0001199 101.4275 258.6852 15.08830846 81421,6917.908,95.438,540.603,538.944,0.0
53917.0,STARLINK-5036,PAYLOAD,2024-03-12 10:25:08,15.08841984,0.0001344,53.2185,338.9182,77.5242,282.5901,6.8768e-05,8.07e-06,0.0,0 STARLINK-5036,1 53917U 22119AH  24072.43412045  .00000807  00000-0  68768-4 0  9992,2 53917  53.2185 338.9182 0001344  77.5242 282.5901 15.08841984 81615,6917.874,95.437,540.669,538.81,0.0
53917.0,STARLINK-5036,PAYLOAD,2024-03-13 03:54:23,15.08825662,0.0001566,53.2204,335.6499,80.5464,279.5705,0.00018818,2.707e-05,0.0,0 STARLINK-5036,1 53917U 22119AH  24073.16277038  .00002707  00000-0  18818-3 0  9995,2 53917  53.2204 335.6499 0001566  80.5464 279.5705 15.08825662 81723,6917.924,95.438,540.873,538.706,0.0
53917.0,STARLINK-5036,PAYLOAD,2024-03-13 10:15:54,15.08847938,0.0001141,53.2187,334.4595,78.1302,281.9818,0.00017813,2.549e-05,0.0,0 STARLINK-5036,1 53917U 22119AH  24073.42771531  .00002549  00000-0  17813-3 0  9999,2 53917  53.2187 334.4595 0001141  78.1302 281.9818 15.08847938 81766,6917.856,95.437,540.51,538.932,0.0
53917.0,STARLINK-5036,PAYLOAD,2024-03-13 22:59:01,15.08837854,0.0001774,53.2207,332.0803,81.0357,279.0836,-3.7946e-06,-3.48e-06,0.0,0 STARLINK-5036,1 53917U 22119AH  24073.95765070 -.00000348  00000-0 -37946-5 0  9996,2 53917  53.2207 332.0803 0001774  81.0357 279.0836 15.08837854 82260,6917.887,95.438,540.979,538.525,0.0
53917.0,STARLINK-5036,PAYLOAD,2024-03-14 00:34:24,15.08837635,0.0001608,53.2197,331.7835,82.6819,277.4356,-7.3265e-06,-4.05e-06,0.0,0 STARLINK-5036,1 53917U 22119AH  24074.02389048 -.00000405  00000-0 -73265-5 0  9990,2 53917  53.2197 331.7835 0001608  82.6819 277.4356 15.08837635 81855,6917.888,95.438,540.865,538.64,0.0
